STARLINK-31206          
1 59028U 24038F   26068.41316328 -.00000655  00000+0 -14307-4 0  9997
2 59028  42.9983 323.5845 0000464 349.5799  10.5043 15.27574840115486
FLOCK 4G-5              
1 62663U 25009BG  26068.45638436  .00011278  00000+0  40688-3 0  9997
2 62663  97.4058 151.2478 0002094 314.5072  45.5996 15.28679529 63699
